{
  "type": "FeatureCollection",
  "features": [
    {
      "type": "Feature",
      "properties": {
        "norad_id": 36441,
        "name": "COSMOS 2251 DEB",
        "group": "cosmos-2251-debris",
        "lat": -72.25291808560561,
        "lon": -71.18493736816902,
        "alt_km": 627.7536978172557,
        "timestamp": "2025-12-10T18:57:00.462306+00:00",
        "meta_object_name": "COSMOS 2251 DEB",
        "meta_object_id": "1993-036BAQ",
        "meta_epoch": "2025-12-04T18:18:25.005024",
        "meta_mean_motion": 15.06603971,
        "meta_eccentricity": 0.01084902,
        "meta_inclination": 73.8352,
        "meta_ra_of_asc_node": 6.3404,
        "meta_arg_of_pericenter": 107.4279,
        "meta_mean_anomaly": 253.8807,
        "meta_ephemeris_type": 0,
        "meta_classification_type": "U",
        "meta_norad_cat_id": 36441,
        "meta_element_set_no": 999,
        "meta_rev_at_epoch": 86845,
        "meta_bstar": 0.00090032635,
        "meta_mean_motion_dot": 0.00015248,
        "meta_mean_motion_ddot": 0,
        "tle_line1": "1 36441U 93036BAQ 25338.76278941  .00015248  00000+0  90033-3 0  9991",
        "tle_line2": "2 36441  73.8352   6.3404 0108490 107.4279 253.8807 15.06603971868459"
      },
      "geometry": {
        "type": "Point",
        "coordinates": [
          -71.18493736816902,
          -72.25291808560561
        ]
      }
    },
    {
      "type": "Feature",
      "properties": {
        "norad_id": 36442,
        "name": "COSMOS 2251 DEB",
        "group": "cosmos-2251-debris",
        "lat": -72.37400761599872,
        "lon": -71.61409306792712,
        "alt_km": 483.7127242667375,
        "timestamp": "2025-12-10T18:57:00.462316+00:00",
        "meta_object_name": "COSMOS 2251 DEB",
        "meta_object_id": "1993-036BAR",
        "meta_epoch": "2025-12-08T10:48:39.469248",
        "meta_mean_motion": 15.27762018,
        "meta_eccentricity": 0.00088131,
        "meta_inclination": 73.9528,
        "meta_ra_of_asc_node": 48.4206,
        "meta_arg_of_pericenter": 323.6974,
        "meta_mean_anomaly": 36.3628,
        "meta_ephemeris_type": 0,
        "meta_classification_type": "U",
        "meta_norad_cat_id": 36442,
        "meta_element_set_no": 999,
        "meta_rev_at_epoch": 85850,
        "meta_bstar": 0.005804433,
        "meta_mean_motion_dot": 0.00161056,
        "meta_mean_motion_ddot": 0,
        "tle_line1": "1 36442U 93036BAR 25342.45045682  .00161056  00000+0  58044-2 0  9991",
        "tle_line2": "2 36442  73.9528  48.4206 0008813 323.6974  36.3628 15.27762018858506"
      },
      "geometry": {
        "type": "Point",
        "coordinates": [
          -71.61409306792712,
          -72.37400761599872
        ]
      }
    },
    {
      "type": "Feature",
      "properties": {
        "norad_id": 36451,
        "name": "COSMOS 2251 DEB",
        "group": "cosmos-2251-debris",
        "lat": -19.93922307521752,
        "lon": 164.7182109239282,
        "alt_km": 727.6172358633239,
        "timestamp": "2025-12-10T18:57:00.462326+00:00",
        "meta_object_name": "COSMOS 2251 DEB",
        "meta_object_id": "1993-036BBA",
        "meta_epoch": "2025-12-08T10:10:07.447584",
        "meta_mean_motion": 14.18724413,
        "meta_eccentricity": 0.01840749,
        "meta_inclination": 73.9539,
        "meta_ra_of_asc_node": 342.9701,
        "meta_arg_of_pericenter": 168.3937,
        "meta_mean_anomaly": 192.1542,
        "meta_ephemeris_type": 0,
        "meta_classification_type": "U",
        "meta_norad_cat_id": 36451,
        "meta_element_set_no": 999,
        "meta_rev_at_epoch": 84164,
        "meta_bstar": 0.0010726423,
        "meta_mean_motion_dot": 2.61e-05,
        "meta_mean_motion_ddot": 0,
        "tle_line1": "1 36451U 93036BBA 25342.42369731  .00002610  00000+0  10726-2 0  9997",
        "tle_line2": "2 36451  73.9539 342.9701 0184074 168.3937 192.1542 14.18724413841646"
      },
      "geometry": {
        "type": "Point",
        "coordinates": [
          164.7182109239282,
          -19.93922307521752
        ]
      }
    },
    {
      "type": "Feature",
      "properties": {
        "norad_id": 36453,
        "name": "COSMOS 2251 DEB",
        "group": "cosmos-2251-debris",
        "lat": -34.78934584557952,
        "lon": -12.35125100189335,
        "alt_km": 768.7916355377129,
        "timestamp": "2025-12-10T18:57:00.462336+00:00",
        "meta_object_name": "COSMOS 2251 DEB",
        "meta_object_id": "1993-036BBC",
        "meta_epoch": "2025-12-09T20:46:48.254592",
        "meta_mean_motion": 14.52574246,
        "meta_eccentricity": 0.00703506,
        "meta_inclination": 73.9234,
        "meta_ra_of_asc_node": 157.8445,
        "meta_arg_of_pericenter": 61.8846,
        "meta_mean_anomaly": 5.5104,
        "meta_ephemeris_type": 0,
        "meta_classification_type": "U",
        "meta_norad_cat_id": 36453,
        "meta_element_set_no": 999,
        "meta_rev_at_epoch": 84426,
        "meta_bstar": 0.0013927776,
        "meta_mean_motion_dot": 5.859e-05,
        "meta_mean_motion_ddot": 0,
        "tle_line1": "1 36453U 93036BBC 25343.86583628  .00005859  00000+0  13928-2 0  9996",
        "tle_line2": "2 36453  73.9234 157.8445 0070350  61.8846   5.5104 14.52574246844262"
      },
      "geometry": {
        "type": "Point",
        "coordinates": [
          -12.35125100189335,
          -34.78934584557952
        ]
      }
    },
    {
      "type": "Feature",
      "properties": {
        "norad_id": 36459,
        "name": "COSMOS 2251 DEB",
        "group": "cosmos-2251-debris",
        "lat": -40.7114159590446,
        "lon": -10.926950268194778,
        "alt_km": 874.1948054341419,
        "timestamp": "2025-12-10T18:57:00.462347+00:00",
        "meta_object_name": "COSMOS 2251 DEB",
        "meta_object_id": "1993-036BBJ",
        "meta_epoch": "2025-12-08T08:14:17.711520",
        "meta_mean_motion": 14.26367403,
        "meta_eccentricity": 0.01135417,
        "meta_inclination": 74.048,
        "meta_ra_of_asc_node": 7.7381,
        "meta_arg_of_pericenter": 104.7075,
        "meta_mean_anomaly": 256.669,
        "meta_ephemeris_type": 0,
        "meta_classification_type": "U",
        "meta_norad_cat_id": 36459,
        "meta_element_set_no": 999,
        "meta_rev_at_epoch": 7819,
        "meta_bstar": 0.0018203568,
        "meta_mean_motion_dot": 4.661e-05,
        "meta_mean_motion_ddot": 0,
        "tle_line1": "1 36459U 93036BBJ 25342.34326055  .00004661  00000+0  18204-2 0  9995",
        "tle_line2": "2 36459  74.0480   7.7381 0113541 104.7075 256.6690 14.26367403 78192"
      },
      "geometry": {
        "type": "Point",
        "coordinates": [
          -10.926950268194778,
          -40.7114159590446
        ]
      }
    },
    {
      "type": "Feature",
      "properties": {
        "norad_id": 36470,
        "name": "COSMOS 2251 DEB",
        "group": "cosmos-2251-debris",
        "lat": 24.8785104330052,
        "lon": 70.73532925189653,
        "alt_km": 538.1175107560275,
        "timestamp": "2025-12-10T18:57:00.462356+00:00",
        "meta_object_name": "COSMOS 2251 DEB",
        "meta_object_id": "1993-036BBV",
        "meta_epoch": "2025-12-10T11:53:54.773376",
        "meta_mean_motion": 15.06931593,
        "meta_eccentricity": 0.0023339,
        "meta_inclination": 73.8446,
        "meta_ra_of_asc_node": 259.0712,
        "meta_arg_of_pericenter": 87.422,
        "meta_mean_anomaly": 272.9641,
        "meta_ephemeris_type": 0,
        "meta_classification_type": "U",
        "meta_norad_cat_id": 36470,
        "meta_element_set_no": 999,
        "meta_rev_at_epoch": 66060,
        "meta_bstar": 0.0053184,
        "meta_mean_motion_dot": 0.00080867,
        "meta_mean_motion_ddot": 0,
        "tle_line1": "1 36470U 93036BBV 25344.49577284  .00080867  00000+0  53184-2 0  9996",
        "tle_line2": "2 36470  73.8446 259.0712 0023339  87.4220 272.9641 15.06931593660604"
      },
      "geometry": {
        "type": "Point",
        "coordinates": [
          70.73532925189653,
          24.8785104330052
        ]
      }
    },
    {
      "type": "Feature",
      "properties": {
        "norad_id": 36528,
        "name": "COSMOS 2251 DEB",
        "group": "cosmos-2251-debris",
        "lat": 39.474006242240364,
        "lon": 162.4277992576531,
        "alt_km": 842.4327769727988,
        "timestamp": "2025-12-10T18:57:00.462367+00:00",
        "meta_object_name": "COSMOS 2251 DEB",
        "meta_object_id": "1993-036BCN",
        "meta_epoch": "2025-12-07T18:35:16.209888",
        "meta_mean_motion": 14.3059773,
        "meta_eccentricity": 0.00852102,
        "meta_inclination": 74.0157,
        "meta_ra_of_asc_node": 154.2656,
        "meta_arg_of_pericenter": 204.8135,
        "meta_mean_anomaly": 154.8907,
        "meta_ephemeris_type": 0,
        "meta_classification_type": "U",
        "meta_norad_cat_id": 36528,
        "meta_element_set_no": 999,
        "meta_rev_at_epoch": 64356,
        "meta_bstar": 0.0018462235,
        "meta_mean_motion_dot": 4.991e-05,
        "meta_mean_motion_ddot": 0,
        "tle_line1": "1 36528U 93036BCN 25341.77449317  .00004991  00000+0  18462-2 0  9997",
        "tle_line2": "2 36528  74.0157 154.2656 0085210 204.8135 154.8907 14.30597730643565"
      },
      "geometry": {
        "type": "Point",
        "coordinates": [
          162.4277992576531,
          39.474006242240364
        ]
      }
    }
  ]
}